FENGYUN 1C DEB          
1 30721U 99025ASF 26115.37187822  .00024816  00000+0  33408-2 0  9991
2 30721  98.7154 261.9253 0023535 276.6064 113.5452 14.78997618998137
FENGYUN 1C DEB          
1 30723U 99025ASH 26116.24428711  .00006405  00000+0  19080-2 0  9999
2 30723  98.8363 212.1113 0015045 214.5118 171.4138 14.43373402993100
FENGYUN 1C DEB          
1 30724U 99025ASJ 26115.03366301  .00000687  00000+0  23601-3 0  9993
2 30724  99.3161 315.7319 0092398 231.7733 291.5257 14.37386367  3601
FENGYUN 1C DEB          
1 30725U 99025ASK 26115.81756534  .00001689  00000+0  83459-3 0  9991
2 30725  98.9940 191.1429 0086225  10.7996 114.5160 14.16858272982461
FENGYUN 1C DEB          
1 30726U 99025ASL 26114.77225679  .00001244  00000+0  71364-3 0  9996
2 30726  99.2681 125.4153 0077561 214.7436 323.8128 14.09852956978571
FENGYUN 1C DEB          
1 30728U 99025ASN 26116.26995097  .00000137  00000+0  74922-4 0  9996
2 30728  98.5291 123.8926 0099285  50.4320 310.5577 14.23530051996033
FENGYUN 1C DEB          
1 30730U 99025ASQ 26115.66589572  .00001667  00000+0  69275-3 0  9992
2 30730  98.6022 157.4666 0077323  19.7408 100.0025 14.26115872989144
FENGYUN 1C DEB          
1 30731U 99025ASR 26115.72170803  .00005228  00000+0  15478-2 0  9995
2 30731  98.8500 205.2886 0014389 202.9811 309.5650 14.43771838992885
FENGYUN 1C DEB          
1 30732U 99025ASS 26116.55766573  .00000176  00000+0  12868-3 0  9991
2 30732  98.7931 137.4489 0123733 191.3201 321.3214 14.04067372980834
FENGYUN 1C DEB          
1 30735U 99025ASV 26115.70220595  .00002744  00000+0  11725-2 0  9992
2 30735  98.7500 191.3600 0059523 215.1639 308.6707 14.24869288986556
FENGYUN 1C DEB          
1 30736U 99025ASW 26115.55536522  .00001330  00000+0  13589-2 0  9996
2 30736  98.7640 145.2482 0280904  65.0963  83.6649 13.62096040946740
FENGYUN 1C DEB          
1 30737U 99025ASX 26116.43183264  .00000488  00000+0  25584-3 0  9998
2 30737  98.5958  99.4294 0024670 103.9325  47.8492 14.18456363989422
FENGYUN 1C DEB          
1 30739U 99025ASZ 26116.44056374  .00000564  00000+0  29877-3 0  9996
2 30739  98.7065 105.2533 0099648 291.8919 221.8218 14.15163065987687
FENGYUN 1C DEB          
1 30740U 99025ATA 26115.26204907  .00008827  00000+0  20524-2 0  9993
2 30740  98.6896 230.2617 0031070  91.6064 268.8691 14.54852315995876
FENGYUN 1C DEB          
1 30741U 99025ATB 26116.49065940  .00000220  00000+0  14019-3 0  9994
2 30741  98.6772 126.7190 0007426  96.3357  57.1708 14.13319503987220
FENGYUN 1C DEB          
1 30742U 99025ATC 26115.66577523  .00001980  00000+0  11000-2 0  9998
2 30742  98.8554 163.2574 0071294 206.6914 272.3006 14.10989334979306
