[{"OBJECT_NAME":"FENGYUN 1C DEB","OBJECT_ID":"1999-025ASF","EPOCH":"2026-04-25T08:55:30.278208","MEAN_MOTION":14.78997618,"ECCENTRICITY":0.00235356,"INCLINATION":98.7154,"RA_OF_ASC_NODE":261.9253,"ARG_OF_PERICENTER":276.6064,"MEAN_ANOMALY":113.5452,"EPHEMERIS_TYPE":0,"CLASSIFICATION_TYPE":"U","NORAD_CAT_ID":30721,"ELEMENT_SET_NO":999,"REV_AT_EPOCH":99813,"BSTAR":0.0033408486,"MEAN_MOTION_DOT":0.00024816,"MEAN_MOTION_DDOT":0},{"OBJECT_NAME":"FENGYUN 1C DEB","OBJECT_ID":"1999-025ASH","EPOCH":"2026-04-26T05:51:46.406304","MEAN_MOTION":14.43373402,"ECCENTRICITY":0.0015045,"INCLINATION":98.8363,"RA_OF_ASC_NODE":212.1113,"ARG_OF_PERICENTER":214.5118,"MEAN_ANOMALY":171.4138,"EPHEMERIS_TYPE":0,"CLASSIFICATION_TYPE":"U","NORAD_CAT_ID":30723,"ELEMENT_SET_NO":999,"REV_AT_EPOCH":99310,"BSTAR":0.001908,"MEAN_MOTION_DOT":6.405e-5,"MEAN_MOTION_DDOT":0},{"OBJECT_NAME":"FENGYUN 1C DEB","OBJECT_ID":"1999-025ASJ","EPOCH":"2026-04-25T00:48:28.484064","MEAN_MOTION":14.37386367,"ECCENTRICITY":0.00923982,"INCLINATION":99.3161,"RA_OF_ASC_NODE":315.7319,"ARG_OF_PERICENTER":231.7733,"MEAN_ANOMALY":291.5257,"EPHEMERIS_TYPE":0,"CLASSIFICATION_TYPE":"U","NORAD_CAT_ID":30724,"ELEMENT_SET_NO":999,"REV_AT_EPOCH":360,"BSTAR":0.00023601309,"MEAN_MOTION_DOT":6.87e-6,"MEAN_MOTION_DDOT":0},{"OBJECT_NAME":"FENGYUN 1C DEB","OBJECT_ID":"1999-025ASK","EPOCH":"2026-04-25T19:37:17.645376","MEAN_MOTION":14.16858272,"ECCENTRICITY":0.00862256,"INCLINATION":98.994,"RA_OF_ASC_NODE":191.1429,"ARG_OF_PERICENTER":10.7996,"MEAN_ANOMALY":114.516,"EPHEMERIS_TYPE":0,"CLASSIFICATION_TYPE":"U","NORAD_CAT_ID":30725,"ELEMENT_SET_NO":999,"REV_AT_EPOCH":98246,"BSTAR":0.00083459416,"MEAN_MOTION_DOT":1.689e-5,"MEAN_MOTION_DDOT":0},{"OBJECT_NAME":"FENGYUN 1C DEB","OBJECT_ID":"1999-025ASL","EPOCH":"2026-04-24T18:32:02.986656","MEAN_MOTION":14.09852956,"ECCENTRICITY":0.00775613,"INCLINATION":99.2681,"RA_OF_ASC_NODE":125.4153,"ARG_OF_PERICENTER":214.7436,"MEAN_ANOMALY":323.8128,"EPHEMERIS_TYPE":0,"CLASSIFICATION_TYPE":"U","NORAD_CAT_ID":30726,"ELEMENT_SET_NO":999,"REV_AT_EPOCH":97857,"BSTAR":0.0007136402,"MEAN_MOTION_DOT":1.244e-5,"MEAN_MOTION_DDOT":0},{"OBJECT_NAME":"FENGYUN 1C DEB","OBJECT_ID":"1999-025ASN","EPOCH":"2026-04-26T06:28:43.763808","MEAN_MOTION":14.23530051,"ECCENTRICITY":0.0099285,"INCLINATION":98.5291,"RA_OF_ASC_NODE":123.8926,"ARG_OF_PERICENTER":50.432,"MEAN_ANOMALY":310.5577,"EPHEMERIS_TYPE":0,"CLASSIFICATION_TYPE":"U","NORAD_CAT_ID":30728,"ELEMENT_SET_NO":999,"REV_AT_EPOCH":99603,"BSTAR":7.4922e-5,"MEAN_MOTION_DOT":1.37e-6,"MEAN_MOTION_DDOT":0},{"OBJECT_NAME":"FENGYUN 1C DEB","OBJECT_ID":"1999-025ASQ","EPOCH":"2026-04-25T15:58:53.390208","MEAN_MOTION":14.26115872,"ECCENTRICITY":0.00773239,"INCLINATION":98.6022,"RA_OF_ASC_NODE":157.4666,"ARG_OF_PERICENTER":19.7408,"MEAN_ANOMALY":100.0025,"EPHEMERIS_TYPE":0,"CLASSIFICATION_TYPE":"U","NORAD_CAT_ID":30730,"ELEMENT_SET_NO":999,"REV_AT_EPOCH":98914,"BSTAR":0.00069274588,"MEAN_MOTION_DOT":1.667e-5,"MEAN_MOTION_DDOT":0},{"OBJECT_NAME":"FENGYUN 1C DEB","OBJECT_ID":"1999-025ASR","EPOCH":"2026-04-25T17:19:15.573792","MEAN_MOTION":14.43771838,"ECCENTRICITY":0.00143894,"INCLINATION":98.85,"RA_OF_ASC_NODE":205.2886,"ARG_OF_PERICENTER":202.9811,"MEAN_ANOMALY":309.565,"EPHEMERIS_TYPE":0,"CLASSIFICATION_TYPE":"U","NORAD_CAT_ID":30731,"ELEMENT_SET_NO":999,"REV_AT_EPOCH":99288,"BSTAR":0.0015477943,"MEAN_MOTION_DOT":5.228e-5,"MEAN_MOTION_DDOT":0},{"OBJECT_NAME":"FENGYUN 1C DEB","OBJECT_ID":"1999-025ASS","EPOCH":"2026-04-26T13:23:02.319072","MEAN_MOTION":14.04067372,"ECCENTRICITY":0.0123733,"INCLINATION":98.7931,"RA_OF_ASC_NODE":137.4489,"ARG_OF_PERICENTER":191.3201,"MEAN_ANOMALY":321.3214,"EPHEMERIS_TYPE":0,"CLASSIFICATION_TYPE":"U","NORAD_CAT_ID":30732,"ELEMENT_SET_NO":999,"REV_AT_EPOCH":98083,"BSTAR":0.00012868,"MEAN_MOTION_DOT":1.76e-6,"MEAN_MOTION_DDOT":0},{"OBJECT_NAME":"FENGYUN 1C DEB","OBJECT_ID":"1999-025ASV","EPOCH":"2026-04-25T16:51:10.594080","MEAN_MOTION":14.24869288,"ECCENTRICITY":0.00595237,"INCLINATION":98.75,"RA_OF_ASC_NODE":191.36,"ARG_OF_PERICENTER":215.1639,"MEAN_ANOMALY":308.6707,"EPHEMERIS_TYPE":0,"CLASSIFICATION_TYPE":"U","NORAD_CAT_ID":30735,"ELEMENT_SET_NO":999,"REV_AT_EPOCH":98655,"BSTAR":0.0011725377,"MEAN_MOTION_DOT":2.744e-5,"MEAN_MOTION_DDOT":0},{"OBJECT_NAME":"FENGYUN 1C DEB","OBJECT_ID":"1999-025ASW","EPOCH":"2026-04-25T13:19:43.555008","MEAN_MOTION":13.6209604,"ECCENTRICITY":0.02809045,"INCLINATION":98.764,"RA_OF_ASC_NODE":145.2482,"ARG_OF_PERICENTER":65.0963,"MEAN_ANOMALY":83.6649,"EPHEMERIS_TYPE":0,"CLASSIFICATION_TYPE":"U","NORAD_CAT_ID":30736,"ELEMENT_SET_NO":999,"REV_AT_EPOCH":94674,"BSTAR":0.0013588896,"MEAN_MOTION_DOT":1.33e-5,"MEAN_MOTION_DDOT":0},{"OBJECT_NAME":"FENGYUN 1C DEB","OBJECT_ID":"1999-025ASX","EPOCH":"2026-04-26T10:21:50.340096","MEAN_MOTION":14.18456363,"ECCENTRICITY":0.002467,"INCLINATION":98.5958,"RA_OF_ASC_NODE":99.4294,"ARG_OF_PERICENTER":103.9325,"MEAN_ANOMALY":47.8492,"EPHEMERIS_TYPE":0,"CLASSIFICATION_TYPE":"U","NORAD_CAT_ID":30737,"ELEMENT_SET_NO":999,"REV_AT_EPOCH":98942,"BSTAR":0.00025584,"MEAN_MOTION_DOT":4.88e-6,"MEAN_MOTION_DDOT":0},{"OBJECT_NAME":"FENGYUN 1C DEB","OBJECT_ID":"1999-025ASZ","EPOCH":"2026-04-26T10:34:24.707136","MEAN_MOTION":14.15163065,"ECCENTRICITY":0.0099648,"INCLINATION":98.7065,"RA_OF_ASC_NODE":105.2533,"ARG_OF_PERICENTER":291.8919,"MEAN_ANOMALY":221.8218,"EPHEMERIS_TYPE":0,"CLASSIFICATION_TYPE":"U","NORAD_CAT_ID":30739,"ELEMENT_SET_NO":999,"REV_AT_EPOCH":98768,"BSTAR":0.00029877,"MEAN_MOTION_DOT":5.64e-6,"MEAN_MOTION_DDOT":0},{"OBJECT_NAME":"FENGYUN 1C DEB","OBJECT_ID":"1999-025ATA","EPOCH":"2026-04-25T06:17:21.039648","MEAN_MOTION":14.54852315,"ECCENTRICITY":0.003107,"INCLINATION":98.6896,"RA_OF_ASC_NODE":230.2617,"ARG_OF_PERICENTER":91.6064,"MEAN_ANOMALY":268.8691,"EPHEMERIS_TYPE":0,"CLASSIFICATION_TYPE":"U","NORAD_CAT_ID":30740,"ELEMENT_SET_NO":999,"REV_AT_EPOCH":99587,"BSTAR":0.0020524,"MEAN_MOTION_DOT":8.827e-5,"MEAN_MOTION_DDOT":0},{"OBJECT_NAME":"FENGYUN 1C DEB","OBJECT_ID":"1999-025ATB","EPOCH":"2026-04-26T11:46:32.972160","MEAN_MOTION":14.13319503,"ECCENTRICITY":0.0007426,"INCLINATION":98.6772,"RA_OF_ASC_NODE":126.719,"ARG_OF_PERICENTER":96.3357,"MEAN_ANOMALY":57.1708,"EPHEMERIS_TYPE":0,"CLASSIFICATION_TYPE":"U","NORAD_CAT_ID":30741,"ELEMENT_SET_NO":999,"REV_AT_EPOCH":98722,"BSTAR":0.00014019,"MEAN_MOTION_DOT":2.2e-6,"MEAN_MOTION_DDOT":0},{"OBJECT_NAME":"FENGYUN 1C DEB","OBJECT_ID":"1999-025ATC","EPOCH":"2026-04-25T15:58:42.979872","MEAN_MOTION":14.10989334,"ECCENTRICITY":0.00712943,"INCLINATION":98.8554,"RA_OF_ASC_NODE":163.2574,"ARG_OF_PERICENTER":206.6914,"MEAN_ANOMALY":272.3006,"EPHEMERIS_TYPE":0,"CLASSIFICATION_TYPE":"U","NORAD_CAT_ID":30742,"ELEMENT_SET_NO":999,"REV_AT_EPOCH":97930,"BSTAR":0.0011000126,"MEAN_MOTION_DOT":1.98e-5,"MEAN_MOTION_DDOT":0}]
